NSS-9                   
1 33749U 09008A   21112.53750056  .00000070  00000-0  00000+0 0  9997
2 33749   0.0178 314.6062 0002237  71.0322 201.7408  1.00270895 44692
EUTELSAT 33E            
1 33750U 09008B   21112.29228046  .00000154  00000-0  00000-0 0  9995
2 33750   0.0597  30.1999 0004162 355.0915 323.5828  1.00272380 44577
TELSTAR 11N             
1 34111U 09009A   21112.42173853 -.00000252  00000-0  00000-0 0  9998
2 34111   0.0218 247.2571 0002539 124.8014 312.9250  1.00269569 27379
EUTELSAT 10A            
1 34710U 09016A   21112.28765696  .00000067  00000-0  00000-0 0  9990
2 34710   0.0701  20.3004 0005468  12.5493 291.2516  1.00271979 22388
WGS F2 (USA 204)        
1 34713U 09017A   21112.15357538  .00000067  00000-0  00000+0 0  9991
2 34713   0.0727  92.9011 0001296 270.8277 319.4599  1.00270180 44062
SES-7 (PROTOSTAR 2)     
1 34941U 09027A   21112.52258322 -.00000347  00000-0  00000-0 0  9990
2 34941   0.0808  89.7467 0000229 257.3459 160.0845  1.00270356 43755
MEASAT-3A               
1 35362U 09032A   21112.51926825 -.00000243  00000-0  00000-0 0  9998
2 35362   0.0319 220.6906 0000365 120.8121 147.7185  1.00269979 43382
GOES 14                 
1 35491U 09033A   21112.54921682 -.00000095  00000-0  00000+0 0  9995
2 35491   0.1707 117.1484 0009688 102.5039  84.6089  1.00272260 43288
FM-5                    
1 35493U 09034A   21112.43664795 -.00000201  00000-0  00000-0 0  9995
2 35493   0.0229 294.0129 0000896  84.4956 263.2442  1.00269759 27781
TERRESTAR-1             
1 35496U 09035A   21112.54364819 -.00000056  00000-0  00000-0 0  9993
2 35496   2.7270  27.7774 0002738   5.2794 262.4578  1.00271853 43264
ASIASAT 5               
1 35696U 09042A   21112.52101299 -.00000309  00000-0  00000-0 0  9993
2 35696   0.0158 266.5707 0001663 116.3589 115.9347  1.00272012 42828
JCSAT-RA (JCSAT-12)     
1 35755U 09044A   21112.54285568 -.00000033  00000-0  00000-0 0  9999
2 35755   0.0240 240.6140 0002182 154.5377 179.9721  1.00271316 42749
OPTUS D3                
1 35756U 09044B   21112.56947259 -.00000149  00000-0  00000-0 0  9992
2 35756   0.0441  22.3534 0004346 359.7476 189.7433  1.00271435 42693
PALAPA D                
1 35812U 09046A   21112.24407423  .00000058  00000-0  00000-0 0  9994
2 35812   0.8377 106.9303 0021111 331.3594 281.9532  0.98744199 42795
NIMIQ 5                 
1 35873U 09050A   21112.44495755 -.00000258  00000-0  00000-0 0  9996
2 35873   0.0169 225.8639 0003036 191.0171 241.3238  1.00267192 42480
AMAZONAS 2              
1 35942U 09054A   21112.50396765 -.00000284  00000-0  00000-0 0  9994
2 35942   0.0589 108.4555 0003380 328.4389 254.3315  1.00272238 42314
COMSATBW-1              
1 35943U 09054B   21112.15470944  .00000022  00000-0  00000-0 0  9997
2 35943   0.0169 222.8713 0003812 200.5127 265.7882  1.00274318 42435
NSS-12                  
1 36032U 09058A   21112.51237663  .00000070  00000-0  00000-0 0  9993
2 36032   0.0236  96.3886 0002730 292.1261  63.7258  1.00271882 42053
THOR 6                  
1 36033U 09058B   21112.35727120 -.00000011  00000-0  00000-0 0  9994
2 36033   0.0084 181.2446 0001833 214.8223 302.3478  1.00272212 42147
INTELSAT 14 (IS-14)     
1 36097U 09064A   21112.42025552 -.00000275  00000-0  00000+0 0  9990
2 36097   0.0185 231.4814 0002495 155.2956 290.2094  1.00273419 41825
EUTELSAT 36B            
1 36101U 09065A   21112.30049333  .00000154  00000-0  00000-0 0  9993
2 36101   0.0707  17.9775 0005290  20.1054 316.5529  1.00271780 41845
INTELSAT 15 (IS-15)     
1 36106U 09067A   21112.08727611 -.00000186  00000-0  00000-0 0  9993
2 36106   0.0154 284.6146 0002304 110.6154 291.6971  1.00269917 22358
WGS F3 (USA 211)        
1 36108U 09068A   21112.35509031 -.00000098  00000-0  00000-0 0  9992
2 36108   0.0224 253.8528 0000089  86.9612 345.6308  1.00270751 27731
DIRECTV 12              
1 36131U 09075A   21112.55054380 -.00000105  00000-0  00000-0 0  9999
2 36131   0.0150 190.4106 0000206 176.3709 299.5278  1.00271352 27691
BEIDOU 3                
1 36287U 10001A   21112.05275979 -.00000282  00000-0  00000+0 0  9991
2 36287   1.7874  43.8095 0003657  78.2571 247.6165  1.00267745 41283
RADUGA-1M 2             
1 36358U 10002A   21112.51795972 -.00000186  00000-0  00000-0 0  9996
2 36358   0.0670 254.6825 0003815 170.7967  56.7698  1.00273070 31225
SDO                     
1 36395U 10005A   21112.54888861 -.00000035  00000-0  00000-0 0  9996
2 36395  30.8634 116.1225 0001468 304.2279 246.3228  1.00273737 41198
INTELSAT 16 (IS-16)     
1 36397U 10006A   21112.44247771 -.00000246  00000-0  00000-0 0  9991
2 36397   0.0158 268.2423 0001969 136.4939 249.0756  1.00271360 40851
GOES 15                 
1 36411U 10008A   21112.57069034  .00000050  00000-0  00000-0 0  9990
2 36411   0.0827 216.3162 0004666 192.1921 240.0156  1.00281979 40810
ECHOSTAR 14             
1 36499U 10010A   21112.53819394 -.00000001  00000-0  00000-0 0  9994
2 36499   0.0139 248.1758 0002710 148.8087 248.6908  1.00271107 27697
SES-1                   
1 36516U 10016A   21112.55230237 -.00000116  00000-0  00000-0 0  9992
2 36516   0.0497  74.5611 0002491 313.5297 280.5656  1.00271290 40179
ASTRA 3B                
1 36581U 10021A   21112.50565946  .00000135  00000-0  00000-0 0  9993
2 36581   0.0431   8.3638 0002801  22.5497  25.3836  1.00272539 40001
COMSATBW-2              
1 36582U 10021B   21112.28826760  .00000086  00000-0  00000-0 0  9998
2 36582   0.0171 212.9045 0002495 193.3210 281.2835  1.00270031 40082
BADR-5                  
1 36592U 10025A   21112.50618288  .00000143  00000-0  00000-0 0  9996
2 36592   0.0190 155.2027 0002956 281.8080 342.0063  1.00274796 34346
COMS 1                  
1 36744U 10032A   21112.52659608 -.00000346  00000-0  00000-0 0  9992
2 36744   0.0656  92.5642 0000970 309.5595 126.4361  1.00270362 32226
ARABSAT-5A              
1 36745U 10032B   21112.29175705  .00000152  00000-0  00000-0 0  9992
2 36745   0.0673  40.7627 0003450  21.7035 283.6094  1.00271272 39779
ECHOSTAR 15             
1 36792U 10034A   21112.51507892 -.00000283  00000-0  00000-0 0  9993
2 36792   0.0412  66.4134 0001968 315.9364 312.2102  1.00269327 39468
BEIDOU 5                
1 36828U 10036A   21112.05647275 -.00000104  00000-0  00000-0 0  9996
2 36828  54.1721 180.1161 0110880 234.8271 294.8461  1.00278803 39344
NILESAT 201             
1 36830U 10037A   21112.35604990 -.00000059  00000-0  00000-0 0  9999
2 36830   0.0505 147.6420 0006023 258.5635 285.6094  1.00271687 39492
RASCOM-QAF 1R           
1 36831U 10037B   21112.35796910  .00000017  00000-0  00000-0 0  9997
2 36831   0.0215 131.5245 0004537 262.5090 308.3472  1.00271850 39424
AEHF-1 (USA 214)        
1 36868U 10039A   21112.28643566  .00000028  00000-0  00000-0 0  9991
2 36868   3.4878  92.6459 0005952 332.9929 252.0570  1.00269153 34786
CHINASAT 6A (ZX 6A)     
1 37150U 10042A   21112.64679517 -.00000355  00000-0  00000-0 0  9999
2 37150   0.0551 111.4049 0002086  90.8561   6.5726  1.00271783 39034
QZS-1 (MICHIBIKI-1)     
1 37158U 10045A   21112.37956069 -.00000067  00000-0  00000-0 0  9990
2 37158  41.9061 139.2438 0754500 270.3298  78.4705  1.00281946 38866
XM-5                    
1 37185U 10053A   21112.53729795 -.00000206  00000-0  00000-0 0  9996
2 37185   0.0143 223.7635 0005104   7.5265  87.7792  1.00270386 38612
BSAT-3B                 
1 37207U 10056B   21112.52293215 -.00000352  00000-0  00000-0 0  9998
2 37207   0.0482 345.3156 0003257   3.7433 159.8294  1.00267794 33278
BEIDOU 6                
1 37210U 10057A   21112.60485368 -.00000113  00000-0  00000-0 0  9999
2 37210   0.7585  40.4347 0001957 174.3739  13.7453  1.00273399 38411
SKYTERRA 1              
1 37218U 10061A   21112.55218795 -.00000118  00000-0  00000-0 0  9999
2 37218   2.1412  14.5455 0004012 358.3853 295.3818  1.00270664 38327
ZHONGXING-20A           
1 37234U 10064A   21112.64760105 -.00000350  00000-0  00000-0 0  9995
2 37234   1.6076  93.2573 0002669 329.9438 147.2998  1.00273223 38169
HYLAS 1                 
1 37237U 10065A   21112.52738118 -.00000287  00000-0  00000+0 0  9993
2 37237   0.8723  94.1924 0000668  84.2413 354.5633  1.00556324 38135
INTELSAT 17 (IS-17)     
1 37238U 10065B   21112.51412134 -.00000003  00000-0  00000+0 0  9996
2 37238   0.0199 167.8095 0002675 244.9021  49.1478  1.00273837 38052
BEIDOU 7                
1 37256U 10068A   21112.24185799 -.00000189  00000-0  00000+0 0  9998
2 37256  50.9508 294.6715 0083293 214.8566 267.8148  1.00272978 37926
EUTELSAT KA-SAT 9A      
1 37258U 10069A   21112.35910316  .00000061  00000-0  00000-0 0  9993
2 37258   0.0539 279.4619 0004396 177.3547 252.0816  1.00274037 25137
HISPASAT 30W-5          
1 37264U 10070A   21112.42322154 -.00000217  00000-0  00000-0 0  9991
2 37264   0.0460  98.6608 0004193 322.8542 271.5443  1.00272555 34318
KOREASAT 6              
1 37265U 10070B   21112.52415347 -.00000364  00000-0  00000-0 0  9993
2 37265   0.0125 244.5971 0001892 173.4762  97.4493  1.00270314 37908
BEIDOU 8                
1 37384U 11013A   21112.54531737 -.00000184  00000-0  00000-0 0  9997
2 37384  59.7035  58.4645 0052836 207.7858 260.3910  1.00269394 36801
INTELSAT NEW DAWN       
1 37392U 11016A   21112.30049333  .00000154  00000-0  00000-0 0  9995
2 37392   0.0158 180.5038 0000719 232.7787 298.2939  1.00272056 34426
YAHSAT 1A               
1 37393U 11016B   21112.51150427  .00000099  00000-0  00000-0 0  9994
2 37393   0.0131 258.9642 0001498 150.9321  37.5318  1.00270440 23528
SBIRS GEO-1 (USA 230)   
1 37481U 11019A   21112.51420858 -.00000011  00000-0  00000-0 0  9998
2 37481   1.8346 359.0294 0001822  43.1262  59.9376  1.00272451 36538
TELSTAR 14R             
1 37602U 11021A   21112.52063326 -.00000281  00000-0  00000-0 0  9999
2 37602   0.0401  42.6141 0002918 358.1458 294.4717  1.00271395 36952
